CCSDS_OMM_VERS,COMMENT,CREATION_DATE,ORIGINATOR,OBJECT_NAME,OBJECT_ID,CENTER_NAME,REF_FRAME,TIME_SYSTEM,MEAN_ELEMENT_THEORY,EPOCH,MEAN_MOTION,ECCENTRICITY,INCLINATION,RA_OF_ASC_NODE,ARG_OF_PERICENTER,MEAN_ANOMALY,EPHEMERIS_TYPE,CLASSIFICATION_TYPE,NORAD_CAT_ID,ELEMENT_SET_NO,REV_AT_EPOCH,BSTAR,MEAN_MOTION_DOT,MEAN_MOTION_DDOT,SEMIMAJOR_AXIS,PERIOD,APOAPSIS,PERIAPSIS,OBJECT_TYPE,RCS_SIZE,COUNTRY_CODE,LAUNCH_DATE,SITE,DECAY_DATE,FILE,GP_ID,TLE_LINE0,TLE_LINE1,TLE_LINE2
3.0,GENERATED VIA SPACE-TRACK.ORG API,2020-07-02T10:56:09,18 SPCS,COSMOS 1461 DEB,1983-044GT,EARTH,TEME,UTC,SGP4,2020-06-30T07:58:58.480320,15.95814482,0.0035833,64.9777,305.1422,300.9007,58.8637,0,U,43306,999,16219,0.004602,0.01947547,0.002294,6664.182,90.236,309.927,262.168,DEBRIS,SMALL,CIS,1983-05-07,TTMTR,2020-07-02,2777441,156779815,0 COSMOS 1461 DEB,1 43306U 83044GT  20182.33262130  .01947547  22940-2  46020-2 0  9998,2 43306  64.9777 305.1422 0035833 300.9007  58.8637 15.95814482162199
3.0,GENERATED VIA SPACE-TRACK.ORG API,2005-06-09T11:45:56,18 SPCS,CZ-2C DEB,1993-063E,EARTH,TEME,UTC,SGP4,1993-10-11T06:14:16.487520,16.40878673,0.0040196,57.2146,79.0324,162.2658,200.8827,0,U,22863,999,47,0.0013203,0.54846412,5.1699e-05,6541.607,87.757,189.766,137.177,DEBRIS,,,,,1993-10-11,145852,51684798,0 CZ-2C DEB,1 22863U 93063  E 93284.25991305  .54846412 +51699-4 +13203-2 0  9991,2 22863 057.2146 079.0324 0040196 162.2658 200.8827 16.40878673000471
3.0,GENERATED VIA SPACE-TRACK.ORG API,2022-04-15T03:04:43,18 SPCS,COSMOS 1408 DEB,1982-092BRN,EARTH,TEME,UTC,SGP4,2022-04-14T14:45:06.268896,16.03879017,0.0009272,82.5211,329.2006,260.5534,99.4698,0,U,51697,999,1007,0.0074828,0.03658392,0.024535,6641.825,89.782,269.848,257.532,DEBRIS,SMALL,CIS,1982-09-16,PKMTR,2022-04-15,3401977,201260049,0 COSMOS 1408 DEB,1 51697U 82092BRN 22104.61465589  .03658392  24535-1  74828-2 0  9999,2 51697  82.5211 329.2006 0009272 260.5534  99.4698 16.03879017 10071
3.0,GENERATED VIA SPACE-TRACK.ORG API,2006-06-19T09:03:59,18 SPCS,PROGRESS-M 55,2005-047A,EARTH,TEME,UTC,SGP4,2006-06-19T11:26:05.889119,15.75775654,0.000997,51.6287,175.6854,342.2663,178.8277,0,U,28906,999,2829,4.9945e-05,7.22e-05,0.0,6720.566,91.383,349.131,335.73,PAYLOAD,LARGE,CIS,2005-12-21,TTMTR,2006-06-19,279377,57784838,0 PROGRESS-M 55,1 28906U 05047A   06170.47645705  .00007220  00000-0  49945-4 0  9999,2 28906 051.6287 175.6854 0009970 342.2663 178.8277 15.75775654 28296
3.0,GENERATED VIA SPACE-TRACK.ORG API,2014-10-29T16:06:52,18 SPCS,ELEKTRON 1 DEB,1964-006T,EARTH,TEME,UTC,SGP4,2014-10-28T03:33:42.770879,16.06203497,0.0039452,60.6042,165.1438,331.5309,172.194,0,U,19990,999,96091,0.0074715,0.04903026,0.042177,6635.419,89.652,283.462,231.106,DEBRIS,SMALL,CIS,1964-01-30,TTMTR,2014-10-28,1770142,97383517,0 ELEKTRON 1 DEB,1 19990U 64006T   14301.14841170  .04903026  42177-1  74715-2 0  9991,2 19990 060.6042 165.1438 0039452 331.5309 172.1940 16.06203497960910
3.0,GENERATED VIA SPACE-TRACK.ORG API,2022-06-19T19:12:51,18 SPCS,COSMOS 1408 DEB,1982-092BTT,EARTH,TEME,UTC,SGP4,2022-06-17T16:52:55.459488,15.71764614,0.0003113,82.545,267.8761,7.3754,352.7554,0,U,51941,999,2015,0.0061407,0.00879044,0.0,6731.991,91.617,355.951,351.76,DEBRIS,SMALL,CIS,1982-09-16,PKMTR,2022-06-27,3497010,206419188,0 COSMOS 1408 DEB,1 51941U 82092BTT 22168.70341967  .00879044  00000-0  61407-2 0  9999,2 51941  82.5450 267.8761 0003113   7.3754 352.7554 15.71764614 20158
3.0,GENERATED VIA SPACE-TRACK.ORG API,2004-08-15T23:39:44,18 SPCS,DELTA 1 DEB,1972-058FP,EARTH,TEME,UTC,SGP4,1976-01-27T22:30:05.808671,16.17623666,0.0023871,97.7803,106.9862,284.9647,74.8941,0,U,8434,999,18719,0.0,0.02206014,0.0,6604.152,89.019,241.782,210.253,DEBRIS,,,,,1976-01-31,33993,9746751,0 DELTA 1 DEB,1 08434U 72058 FP 76027.93756723  .02206014 +00000-0 +00000-0 0  9990,2 08434 097.7803 106.9862 0023871 284.9647 074.8941 16.17623666187191
3.0,GENERATED VIA SPACE-TRACK.ORG API,2004-08-15T23:40:35,18 SPCS,DELTA 1 DEB,1975-004CW,EARTH,TEME,UTC,SGP4,1977-02-01T21:52:55.546464,16.12445806,0.0025525,98.2083,70.1008,308.8964,52.8767,0,U,9032,999,5376,0.0,0.034426,0.0,6618.283,89.305,257.041,223.255,DEBRIS,LARGE,US,1975-01-22,AFWTR,1977-02-04,34010,10066592,0 DELTA 1 DEB,1 09032U 75004 CW 77032.91175401  .03442600 +00000-0 +00000-0 0  9996,2 09032 098.2083 070.1008 0025525 308.8964 052.8767 16.12445806053762
3.0,GENERATED VIA SPACE-TRACK.ORG API,2005-06-20T09:19:53,18 SPCS,ARIANE 44LP R/B,1993-066B,EARTH,TEME,UTC,SGP4,1994-04-16T23:37:03.895968,13.99967675,0.1078768,6.6983,177.0573,72.8543,298.2192,0,U,22906,999,166,0.0022253,0.68025512,-0.00010424,7272.048,102.859,1678.399,109.428,ROCKET BODY,LARGE,FR,1993-10-22,FRGUI,1994-04-17,149697,53592849,0 ARIANE 44LP R/B,1 22906U 93066  B 94106.98407287  .68025512 -10424-3 +22253-2 0  9998,2 22906 006.6983 177.0573 1078768 072.8543 298.2192 13.99967675001667
3.0,GENERATED VIA SPACE-TRACK.ORG API,2013-04-04T05:42:25,18 SPCS,COSMOS 2251 DEB,1993-036GG,EARTH,TEME,UTC,SGP4,2013-03-31T22:01:02.567712,15.87809152,0.0030652,73.9746,353.3549,193.4107,166.6315,0,U,33997,999,22087,0.0299,0.06234119,0.063016,6686.567,90.691,328.928,287.937,DEBRIS,SMALL,CIS,1993-06-16,PKMTR,2013-04-01,1465273,92583831,0 COSMOS 2251 DEB,1 33997U 93036GG  13090.91739083  .06234119  63016-1  29900-1 0  9999,2 33997 073.9746 353.3549 0030652 193.4107 166.6315 15.87809152220875
3.0,GENERATED VIA SPACE-TRACK.ORG API,2024-10-29T19:19:55,18 SPCS,FLOCK 4X 43,2022-002AV,EARTH,TEME,UTC,SGP4,2024-10-29T06:43:46.855488,16.381033,0.001181,97.3441,24.4769,276.9401,83.0554,0,U,51027,999,15593,0.0014214,0.14450873,2.4928e-06,6548.99,87.907,178.589,163.121,PAYLOAD,MEDIUM,US,2022-01-13,AFETR,2024-11-05,4538016,271875222,0 FLOCK 4X 43,1 51027U 22002AV  24303.28040342  .14450873  24928-5  14214-2 0  9992,2 51027  97.3441  24.4769 0011810 276.9401  83.0554 16.38103300155930
3.0,GENERATED VIA SPACE-TRACK.ORG API,2024-01-23T06:36:17,18 SPCS,SPACEBEENZ-22,2022-047K,EARTH,TEME,UTC,SGP4,2024-01-21T22:39:07.852032,16.23308045,0.0010706,97.3676,117.6099,303.681,56.3459,0,U,52403,999,9763,0.0024823,0.0611565,2.4185e-06,6588.722,88.708,217.641,203.534,PAYLOAD,SMALL,NZ,2022-05-02,RLLC,2024-01-24,4169086,247621136,0 SPACEBEENZ-22,1 52403U 22047K   24021.94384088  .06115650  24185-5  24823-2 0  9992,2 52403  97.3676 117.6099 0010706 303.6810  56.3459 16.23308045 97631
3.0,GENERATED VIA SPACE-TRACK.ORG API,2022-03-14T22:46:12,18 SPCS,COSMOS 1408 DEB,1982-092AXL,EARTH,TEME,UTC,SGP4,2022-03-14T05:21:02.899008,15.52184982,0.0076328,82.595,7.6905,75.2365,285.7329,0,U,50965,999,1145,0.028828,0.02233024,0.0,6788.485,92.772,462.165,358.535,DEBRIS,SMALL,CIS,1982-09-16,PKMTR,2022-03-20,3359393,198740571,0 COSMOS 1408 DEB,1 50965U 82092AXL 22073.22295022  .02233024  00000-0  28828-1 0  9999,2 50965  82.5950   7.6905 0076328  75.2365 285.7329 15.52184982 11459
3.0,GENERATED VIA SPACE-TRACK.ORG API,2004-08-16T23:18:11,18 SPCS,SL-4 R/B,1984-017B,EARTH,TEME,UTC,SGP4,1984-02-23T01:35:07.374047,16.44968375,0.0011235,82.335,287.9286,67.4061,293.1252,0,U,14738,999,108,0.00037393,0.14408234,-1.0429e-05,6530.76,87.539,159.962,145.288,ROCKET BODY,,,,,1984-02-23,34390,13948628,0 SL-4 R/B,1 14738U 84017  B 84054.06605757  .14408234 -10429-4 +37393-3 0  9995,2 14738 082.3350 287.9286 0011235 067.4061 293.1252 16.44968375001080
3.0,GENERATED VIA SPACE-TRACK.ORG API,2004-08-17T15:25:30,18 SPCS,COSMOS 1275 DEB,1981-053FR,EARTH,TEME,UTC,SGP4,1999-05-29T14:28:36.608736,15.9883181,0.0018165,82.6884,6.4283,242.0058,118.7959,0,U,13469,999,89850,0.013779,0.05321904,0.042251,6655.8,90.065,289.755,265.574,DEBRIS,MEDIUM,CIS,1981-06-04,PKMTR,1999-05-30,35559,30510900,0 COSMOS 1275 DEB,1 13469U 81053FR  99149.60320149 +.05321904 +42251-1 +13779-1 0  9994,2 13469 082.6884 006.4283 0018165 242.0058 118.7959 15.98831810898500
3.0,GENERATED VIA SPACE-TRACK.ORG API,2005-05-02T23:37:16,18 SPCS,COSMOS 1889 DEB,1987-085D,EARTH,TEME,UTC,SGP4,1988-01-25T05:32:51.893087,16.08812366,0.0010241,69.965,240.4914,49.3728,310.8575,0,U,18437,999,1701,0.00076682,0.00673927,2.3e-06,6628.244,89.507,256.897,243.321,DEBRIS,LARGE,CIS,1987-10-09,TTMTR,1988-01-31,130984,43224746,0 COSMOS 1889 DEB,1 18437U 87085  D 88025.23115617  .00673927 +23000-5 +76682-3 0  9996,2 18437 069.9650 240.4914 0010241 049.3728 310.8575 16.08812366017014
3.0,GENERATED VIA SPACE-TRACK.ORG API,2024-10-19T06:46:17,18 SPCS,FENGYUN 1C DEB,1999-025EJT,EARTH,TEME,UTC,SGP4,2024-10-18T21:51:09.454176,15.66866663,0.0043734,99.1741,159.4729,319.6541,40.1472,0,U,37473,999,79366,0.0096447,0.01197684,0.0,6746.013,91.903,397.381,338.375,DEBRIS,SMALL,PRC,1999-05-10,TSC,2024-11-01,4528150,270971957,0 FENGYUN 1C DEB,1 37473U 99025EJT 24292.91052609  .01197684  00000-0  96447-2 0  9998,2 37473  99.1741 159.4729 0043734 319.6541  40.1472 15.66866663793666
3.0,GENERATED VIA SPACE-TRACK.ORG API,2004-08-15T23:39:47,18 SPCS,DELTA 1 DEB,1975-004DY,EARTH,TEME,UTC,SGP4,1976-11-01T00:50:01.093631,15.49360275,0.0035222,98.871,330.4912,241.7239,118.04,0,U,9297,999,3920,0.0,0.00821102,0.0,6796.737,92.941,442.542,394.663,DEBRIS,MEDIUM,US,1975-01-22,AFWTR,1977-01-31,33994,9774884,0 DELTA 1 DEB,1 09297U 75004 DY 76306.03473488  .00821102 +00000-0 +00000-0 0  9996,2 09297 098.8710 330.4912 0035222 241.7239 118.0400 15.49360275039206
3.0,GENERATED VIA SPACE-TRACK.ORG API,2016-06-22T05:36:26,18 SPCS,CYGNUS OA-6,2016-019A,EARTH,TEME,UTC,SGP4,2016-06-22T05:09:10.179360,15.59806337,0.00013,51.6422,32.6903,158.0275,308.9494,0,U,41393,999,1418,2.5326e-05,1.558e-05,0.0,6766.354,92.319,389.098,387.339,PAYLOAD,LARGE,US,2016-03-23,AFETR,2016-06-22,2050029,105602101,0 CYGNUS OA-6,1 41393U 16019A   16174.21470115  .00001558  00000-0  25326-4 0  9998,2 41393  51.6422  32.6903 0001300 158.0275 308.9494 15.59806337 14185
